OPS 6582 (TRANSIT 5B-5) 
1 00965U 64083D   21281.78210979  .00000029  00000-0  28055-4 0  9993
2 00965  90.0281 194.7161 0039012 243.8016 170.0274 13.56761298811391
OSCAR 7 (AO-7)          
1 07530U 74089B   21281.88607815 -.00000045  00000-0  15688-5 0  9993
2 07530 101.8693 256.3232 0012181 162.7733 252.1557 12.53650655145948
UOSAT 2 (UO-11)         
1 14781U 84021B   21281.92635127  .00000229  00000-0  34020-4 0  9991
2 14781  97.6000 276.2190 0009912  71.8592 288.3701 14.83337315  2756
NOAA 9                  
1 15427U 84123A   21282.13131666  .00000021  00000-0  33622-4 0  9992
2 15427  99.0082 246.0806 0015173 154.5182 216.1771 14.16146431901273
LUSAT (LO-19)           
1 20442U 90005G   21282.43950096  .00000018  00000-0  23011-4 0  9997
2 20442  98.7549 239.0116 0011621 180.7820 179.3347 14.33000246657213
ITAMSAT (IO-26)         
1 22826U 93061D   21281.80307082  .00000006  00000-0  20004-4 0  9997
2 22826  98.9081 302.0771 0009842  56.1430 304.0687 14.30467134462686
RADIO ROSTO (RS-15)     
1 23439U 94085A   21281.96035228 -.00000037  00000-0  15882-3 0  9994
2 23439  64.8177 192.3779 0164456 315.6679  43.1173 11.27570422103135
JAS-2 (FO-29)           
1 24278U 96046B   21282.17393166 -.00000012  00000-0  25161-4 0  9992
2 24278  98.5545 335.0227 0349760 214.8485 142.9299 13.53106729241879
NOAA 15                 
1 25338U 98030A   21282.52248031  .00000056  00000-0  41751-4 0  9994
2 25338  98.6742 309.9831 0009509 312.6749  47.3629 14.26062233217502
TECHSAT 1B (GO-32)      
1 25397U 98043D   21282.11654035  .00000007  00000-0  22732-4 0  9997
2 25397  98.7812 227.4057 0002315 101.8728 258.2710 14.23717494207880
ISS (ZARYA)             
1 25544U 98067A   21282.56163005  .00003074  00000-0  64029-4 0  9990
2 25544  51.6437 137.1896 0004187  73.6216 329.8546 15.48958482306323
ORSTED                  
1 25635U 99008B   21282.02039847  .00000112  00000-0  34674-4 0  9997
2 25635  96.4784 200.3201 0136802 263.5228  95.0379 14.48325421194154
PHASE 3D (AO-40)        
1 26609U 00072B   21281.17505730 -.00000210  00000-0  00000-0 0  9998
2 26609   8.9821 308.7314 7960429 297.5541   4.8409  1.25587637 95989
PCSAT (NO-44)           
1 26931U 01043C   21281.92169596  .00000007  00000-0  34474-4 0  9993
2 26931  67.0530 347.5977 0005539 271.6196  88.4271 14.30635785 45427
SAUDISAT 1C (SO-50)     
1 27607U 02058C   21281.80611742  .00000131  00000-0  39130-4 0  9995
2 27607  64.5568 351.7052 0054778 348.0745  11.9056 14.75799259 11443
CUTE-1 (CO-55)          
1 27844U 03031E   21282.01661855  .00000088  00000-0  59332-4 0  9991
2 27844  98.6821 288.5140 0010940 108.1923 252.0446 14.22338205948168
CUBESAT XI-IV (CO-57)   
1 27848U 03031J   21281.97333197  .00000059  00000-0  46349-4 0  9996
2 27848  98.6875 289.0282 0010716 120.5918 239.6318 14.21911467947970
MOZHAYETS 4 (RS-22)     
1 27939U 03042A   21282.49159918  .00000295  00000-0  61442-4 0  9997
2 27939  98.1574  58.8970 0011640 281.2079  78.7824 14.67034456964245
INMARSAT 4-F1           
1 28628U 05009A   21281.92197338 -.00000262  00000-0  00000+0 0  9996
2 28628   3.4377  32.2708 0002800 165.3318 295.5905  1.00271219 60498
NOAA 18                 
1 28654U 05018A   21282.41031871  .00000124  00000-0  91353-4 0  9991
2 28654  98.9828 347.6668 0013523 323.6573  36.3679 14.12644991844623
CUBESAT XI-V            
1 28895U 05043F   21281.88600753  .00000326  00000-0  71225-4 0  9997
2 28895  98.0749  52.7489 0016157 209.2554 150.7745 14.63973522850603
METOP-A                 
1 29499U 06044A   21282.51292653  .00000018  00000-0  27119-4 0  9998
2 29499  98.4615 317.1695 0000846  67.3596  67.6614 14.21512777776944
CARTOSAT-2 (IRS-P7)     
1 29710U 07001B   21282.19467232  .00007622  00000-0  22892-3 0  9999
2 29710  97.8704   9.8475 0167273 212.6000 146.4823 15.22037857797940
FALCONSAT-3             
1 30776U 07006E   21281.84256093  .00008617  00000-0  19696-3 0  9993
2 30776  35.4335  90.8467 0002632 247.2072 112.8379 15.42113833810617
CAPE-1                  
1 31130U 07012P   21281.80072852  .00000413  00000-0  97673-4 0  9998
2 31130  98.2404 219.5943 0095781 353.8708   6.1310 14.56745019768457
CARTOSAT-2A             
1 32783U 08021A   21282.43019866  .00000153  00000-0  28012-4 0  9992
2 32783  97.9939 339.8115 0011318 254.7882 105.2068 14.78628844725920
CUTE-1.7+APD II (CO-65) 
1 32785U 08021C   21282.38931343  .00000668  00000-0  76919-4 0  9991
2 32785  97.6246 256.8897 0012725 353.0116   7.0922 14.88830651729194
COMPASS-1               
1 32787U 08021E   21281.96953186  .00001421  00000-0  13718-3 0  9990
2 32787  97.5393 268.3180 0010614 269.8205  90.1799 14.94328932730535
AAUSAT-II               
1 32788U 08021F   21281.95238206  .00000902  00000-0  85670-4 0  9999
2 32788  97.5138 271.9110 0010035 246.7166 113.3000 14.95815019730927
DELFI-C3 (DO-64)        
1 32789U 08021G   21282.05348061  .00003523  00000-0  22292-3 0  9995
2 32789  97.3670 313.0289 0013192 110.0763 250.1888 15.09544071734061
SEEDS II (CO-66)        
1 32791U 08021J   21282.21246794  .00000967  00000-0  10174-3 0  9991
2 32791  97.5831 262.5131 0011965 312.8058  47.2155 14.91562962729812
YUBILEINY (RS-30)       
1 32953U 08025A   21282.43339453  .00000021  00000-0  80971-4 0  9998
2 32953  82.5072 340.0522 0020685  89.8201 270.5250 12.43104870607142
FENGYUN 3A              
1 32958U 08026A   21282.53116421  .00000020  00000-0  29716-4 0  9992
2 32958  98.4649 250.9455 0009453  35.2287 324.9513 14.18670502692757
PRISM (HITOMI)          
1 33493U 09002B   21281.89915847  .00001305  00000-0  11617-3 0  9996
2 33493  98.2015 250.0024 0013900 273.0139  86.9491 14.97926824691319
STARS (KUKAI)           
1 33498U 09002G   21282.09388633  .00000457  00000-0  68539-4 0  9994
2 33498  98.1956 164.5003 0010676 348.2364  11.8596 14.79437571684686
KKS-1 (KISEKI)          
1 33499U 09002H   21282.52107799  .00000244  00000-0  43554-4 0  9999
2 33499  98.2499 154.9275 0010005  42.8745 317.3242 14.75709955683663
NOAA 19                 
1 33591U 09005A   21282.52620161  .00000048  00000-0  51046-4 0  9995
2 33591  99.1780 306.0292 0014135 168.8829 191.2657 14.12499830653023
SWISSCUBE               
1 35932U 09051B   21281.49560583  .00000231  00000-0  62780-4 0  9994
2 35932  98.5939 125.0351 0008665  98.8556 261.3623 14.56589473639452
BEESAT-1                
1 35933U 09051C   21282.07526390  .00000186  00000-0  52740-4 0  9992
2 35933  98.5893 127.4056 0006798 107.6777 252.5162 14.56640696639656
ITUPSAT1                
1 35935U 09051E   21281.80358374  .00000169  00000-0  49683-4 0  9992
2 35935  98.5995 127.2404 0009097 111.1338 249.0832 14.55768456639260
XIWANG-1 (HOPE-1)       
1 36122U 09072B   21281.92725060 -.00000061  00000-0 -48672-4 0  9997
2 36122 100.1467 257.9511 0007206 195.7421 164.3470 13.16362987567828
CARTOSAT-2B             
1 36795U 10035A   21282.46860021  .00000169  00000-0  30260-4 0  9992
2 36795  97.9891 340.0947 0013377 340.8173  19.2534 14.78641602606970
TISAT 1                 
1 36799U 10035E   21282.27485171  .00000834  00000-0  88514-4 0  9998
2 36799  98.2022 117.7024 0011586 194.7280 165.3601 14.91892669610502
FENGYUN 3B              
1 37214U 10059A   21282.50687126  .00000030  00000-0  38925-4 0  9996
2 37214  99.0875 278.8365 0017026 354.4400   5.6582 14.16001430565475
JUGNU                   
1 37839U 11058B   21282.33397280  .00000364  00000-0  51831-4 0  9990
2 37839  19.9610 258.5374 0018678 267.8350 241.5764 14.12728087516699
SRMSAT                  
1 37841U 11058D   21281.82773940  .00000323  00000-0  32265-4 0  9992
2 37841  19.9732 335.8344 0012042  98.8554  57.6083 14.10706258515895
M-CUBED & EXP-1 PRIME   
1 37855U 11061F   21282.41279284  .00003896  00000-0  19022-3 0  9992
2 37855 101.7219 265.0143 0165304  91.5506 270.4649 15.08268595543820
HORYU-2                 
1 38340U 12025D   21281.75725699  .00000410  00000-0  67118-4 0  9994
2 38340  98.2225 351.1735 0010450 317.7826  42.2577 14.76122091495106
METOP-B                 
1 38771U 12049A   21282.41150674  .00000025  00000-0  31475-4 0  9996
2 38771  98.7028 340.9796 0001972  71.4030 352.2466 14.21487496470065
SARAL                   
1 39086U 13009A   21282.41730818 -.00000005  00000-0  14309-4 0  9993
2 39086  98.5474 106.7726 0000350  45.9131 314.2081 14.32062952450557
AAUSAT 3                
1 39087U 13009B   21282.51389831  .00000182  00000-0  77288-4 0  9990
2 39087  98.4158 123.1832 0011765 298.4462  61.5545 14.35979379451563
STRAND-1                
1 39090U 13009E   21282.53477136  .00000047  00000-0  31565-4 0  9990
2 39090  98.4193 122.0056 0008199 303.6622  56.3781 14.35188650451429
BRITE-AUSTRIA           
1 39091U 13009F   21282.51794671  .00000020  00000-0  22049-4 0  9993
2 39091  98.4202 121.1323 0009619 310.2864  49.7480 14.35204299451440
UNIBRITE                
1 39092U 13009G   21282.51711128  .00000033  00000-0  26465-4 0  9990
2 39092  98.4232 120.8529 0008441 305.3194  54.7202 14.35075228451403
SOMP                    
1 39134U 13015E   21281.92086442  .00004101  00000-0  17999-3 0  9993
2 39134  64.8630 163.3029 0019688 314.3234  45.6280 15.23275782468493
BEESAT-3                
1 39135U 13015F   21282.49384936  .00003992  00000-0  19340-3 0  9995
2 39135  64.8676 192.5409 0017763 332.3303  27.6877 15.19921046468363
BEESAT-2                
1 39136U 13015G   21282.14637874  .00003266  00000-0  16315-3 0  9993
2 39136  64.8766 200.5421 0017649 241.1262 118.8095 15.19230261468189
NEE-01 PEGASO           
1 39151U 13018B   21282.24846529  .00000406  00000-0  60027-4 0  9996
2 39151  97.9841  24.0725 0016674 354.2112   5.8904 14.80424721456511
CUBEBUG-1 (CAPITAN BETO)
1 39153U 13018D   21282.55872859  .00000509  00000-0  72580-4 0  9998
2 39153  98.0009  27.9603 0016409 348.1409  11.9414 14.81018725456692
